NAVSTAR 67 (USA 239)
1 38833U 12053A   26118.45959865  .00000078  00000+0  00000+0 0  9998
2 38833  53.5753 145.6365 0178066  65.1655 296.7459  2.00566686 98447
